STARLINK-35399          
1 66029U 25232AA  25316.25003472 -.00087104  00000+0 -21904-2 0  9996
2 66029  53.1586 290.6694 0001359  90.3573  33.8421 15.39648584  4574
STARLINK-35431          
1 66030U 25232AB  25316.25003472  .00052070  00000+0  13045-2 0  9997
2 66030  53.1593 290.6172 0001758 110.5493  39.3506 15.39581546  4573
STARLINK-35326          
1 66031U 25232AC  25315.95605087  .00164098  00000+0  28869-2 0  9998
2 66031  53.1601 291.9212 0001401 117.7079 242.4073 15.49408382  5391
STARLINK-35311          
1 66032U 25232AD  25316.21373749  .00178354  00000+0  31369-2 0  9995
2 66032  53.1598 290.6840 0001446  87.1905 272.9270 15.49357028  5439
QIANFAN-91              
1 66033U 25233A   25316.30564596  .00001452  00000+0  60253-3 0  9998
2 66033  88.9957  65.5351 0017043 129.1063 231.1649 14.25933943  3707
QIANFAN-92              
1 66034U 25233B   25316.30451702  .00001407  00000+0  58286-3 0  9996
2 66034  88.9956  65.5347 0016667 131.5292 228.7335 14.26015467  3701
QIANFAN-93              
1 66035U 25233C   25316.30297065  .00001470  00000+0  60854-3 0  9991
2 66035  88.9957  65.5347 0015960 131.0021 229.2555 14.26099583  3704
QIANFAN-94              
1 66036U 25233D   25316.30256823  .00001422  00000+0  58794-3 0  9996
2 66036  88.9957  65.5348 0016039 130.6520 229.6071 14.26124474  3708
QIANFAN-95              
1 66037U 25233E   25316.30200145  .00001436  00000+0  59357-3 0  9994
2 66037  88.9957  65.5346 0015998 131.0755 229.1823 14.26169721  3709
QIANFAN-96              
1 66038U 25233F   25315.74042402  .00001003  00000+0  41243-3 0  9997
2 66038  88.9957  65.5991 0016660 134.4525 225.8034 14.26169600  3629
QIANFAN-97              
1 66039U 25233G   25316.30159801  .00001405  00000+0  58016-3 0  9995
2 66039  88.9957  65.5345 0016232 132.3447 227.9125 14.26179131  3701
QIANFAN-98              
1 66040U 25233H   25316.30123702  .00001419  00000+0  58616-3 0  9999
2 66040  88.9957  65.5346 0015851 131.1779 229.0784 14.26200604  3709
