CCSDS_OMM_VERS = 2.0
CREATION_DATE  = 
ORIGINATOR     = 

OBJECT_NAME    = STARLINK-35399
OBJECT_ID      = 2025-232AA
CENTER_NAME    = EARTH
REF_FRAME      = TEME
TIME_SYSTEM    = UTC
MEAN_ELEMENT_THEORY = SGP/SGP4

EPOCH          = 2025-11-12T06:00:02.999808
MEAN_MOTION    = 15.39648584
ECCENTRICITY   = .00013593
INCLINATION    = 53.1586
RA_OF_ASC_NODE = 290.6694
ARG_OF_PERICENTER = 90.3573
MEAN_ANOMALY   = 33.8421

EPHEMERIS_TYPE = 0
CLASSIFICATION_TYPE = U
NORAD_CAT_ID   = 66029
ELEMENT_SET_NO = 999
REV_AT_EPOCH   = 457
BSTAR          = -.21904429E-2
MEAN_MOTION_DOT = -.87104E-3
MEAN_MOTION_DDOT = 0

CCSDS_OMM_VERS = 2.0
CREATION_DATE  = 
ORIGINATOR     = 

OBJECT_NAME    = STARLINK-35431
OBJECT_ID      = 2025-232AB
CENTER_NAME    = EARTH
REF_FRAME      = TEME
TIME_SYSTEM    = UTC
MEAN_ELEMENT_THEORY = SGP/SGP4

EPOCH          = 2025-11-12T06:00:02.999808
MEAN_MOTION    = 15.39581546
ECCENTRICITY   = .00017586
INCLINATION    = 53.1593
RA_OF_ASC_NODE = 290.6172
ARG_OF_PERICENTER = 110.5493
MEAN_ANOMALY   = 39.3506

EPHEMERIS_TYPE = 0
CLASSIFICATION_TYPE = U
NORAD_CAT_ID   = 66030
ELEMENT_SET_NO = 999
REV_AT_EPOCH   = 457
BSTAR          = .13044783E-2
MEAN_MOTION_DOT = .5207E-3
MEAN_MOTION_DDOT = 0

CCSDS_OMM_VERS = 2.0
CREATION_DATE  = 
ORIGINATOR     = 

OBJECT_NAME    = STARLINK-35326
OBJECT_ID      = 2025-232AC
CENTER_NAME    = EARTH
REF_FRAME      = TEME
TIME_SYSTEM    = UTC
MEAN_ELEMENT_THEORY = SGP/SGP4

EPOCH          = 2025-11-11T22:56:42.795168
MEAN_MOTION    = 15.49408382
ECCENTRICITY   = .00014011
INCLINATION    = 53.1601
RA_OF_ASC_NODE = 291.9212
ARG_OF_PERICENTER = 117.7079
MEAN_ANOMALY   = 242.4073

EPHEMERIS_TYPE = 0
CLASSIFICATION_TYPE = U
NORAD_CAT_ID   = 66031
ELEMENT_SET_NO = 999
REV_AT_EPOCH   = 539
BSTAR          = .28868804E-2
MEAN_MOTION_DOT = .164098E-2
MEAN_MOTION_DDOT = 0

CCSDS_OMM_VERS = 2.0
CREATION_DATE  = 
ORIGINATOR     = 

OBJECT_NAME    = STARLINK-35311
OBJECT_ID      = 2025-232AD
CENTER_NAME    = EARTH
REF_FRAME      = TEME
TIME_SYSTEM    = UTC
MEAN_ELEMENT_THEORY = SGP/SGP4

EPOCH          = 2025-11-12T05:07:46.919136
MEAN_MOTION    = 15.49357028
ECCENTRICITY   = .00014463
INCLINATION    = 53.1598
RA_OF_ASC_NODE = 290.6840
ARG_OF_PERICENTER = 87.1905
MEAN_ANOMALY   = 272.9270

EPHEMERIS_TYPE = 0
CLASSIFICATION_TYPE = U
NORAD_CAT_ID   = 66032
ELEMENT_SET_NO = 999
REV_AT_EPOCH   = 543
BSTAR          = .31368901E-2
MEAN_MOTION_DOT = .178354E-2
MEAN_MOTION_DDOT = 0

CCSDS_OMM_VERS = 2.0
CREATION_DATE  = 
ORIGINATOR     = 

OBJECT_NAME    = QIANFAN-91
OBJECT_ID      = 2025-233A
CENTER_NAME    = EARTH
REF_FRAME      = TEME
TIME_SYSTEM    = UTC
MEAN_ELEMENT_THEORY = SGP/SGP4

EPOCH          = 2025-11-12T07:20:07.810944
MEAN_MOTION    = 14.25933943
ECCENTRICITY   = .00170431
INCLINATION    = 88.9957
RA_OF_ASC_NODE = 65.5351
ARG_OF_PERICENTER = 129.1063
MEAN_ANOMALY   = 231.1649

EPHEMERIS_TYPE = 0
CLASSIFICATION_TYPE = U
NORAD_CAT_ID   = 66033
ELEMENT_SET_NO = 999
REV_AT_EPOCH   = 370
BSTAR          = .60252722E-3
MEAN_MOTION_DOT = .1452E-4
MEAN_MOTION_DDOT = 0

CCSDS_OMM_VERS = 2.0
CREATION_DATE  = 
ORIGINATOR     = 

OBJECT_NAME    = QIANFAN-92
OBJECT_ID      = 2025-233B
CENTER_NAME    = EARTH
REF_FRAME      = TEME
TIME_SYSTEM    = UTC
MEAN_ELEMENT_THEORY = SGP/SGP4

EPOCH          = 2025-11-12T07:18:30.270528
MEAN_MOTION    = 14.26015467
ECCENTRICITY   = .00166678
INCLINATION    = 88.9956
RA_OF_ASC_NODE = 65.5347
ARG_OF_PERICENTER = 131.5292
MEAN_ANOMALY   = 228.7335

EPHEMERIS_TYPE = 0
CLASSIFICATION_TYPE = U
NORAD_CAT_ID   = 66034
ELEMENT_SET_NO = 999
REV_AT_EPOCH   = 370
BSTAR          = .58285562E-3
MEAN_MOTION_DOT = .1407E-4
MEAN_MOTION_DDOT = 0

CCSDS_OMM_VERS = 2.0
CREATION_DATE  = 
ORIGINATOR     = 

OBJECT_NAME    = QIANFAN-93
OBJECT_ID      = 2025-233C
CENTER_NAME    = EARTH
REF_FRAME      = TEME
TIME_SYSTEM    = UTC
MEAN_ELEMENT_THEORY = SGP/SGP4

EPOCH          = 2025-11-12T07:16:16.664160
MEAN_MOTION    = 14.26099583
ECCENTRICITY   = .00159604
INCLINATION    = 88.9957
RA_OF_ASC_NODE = 65.5347
ARG_OF_PERICENTER = 131.0021
MEAN_ANOMALY   = 229.2555

EPHEMERIS_TYPE = 0
CLASSIFICATION_TYPE = U
NORAD_CAT_ID   = 66035
ELEMENT_SET_NO = 999
REV_AT_EPOCH   = 370
BSTAR          = .60854013E-3
MEAN_MOTION_DOT = .147E-4
MEAN_MOTION_DDOT = 0

CCSDS_OMM_VERS = 2.0
CREATION_DATE  = 
ORIGINATOR     = 

OBJECT_NAME    = QIANFAN-94
OBJECT_ID      = 2025-233D
CENTER_NAME    = EARTH
REF_FRAME      = TEME
TIME_SYSTEM    = UTC
MEAN_ELEMENT_THEORY = SGP/SGP4

EPOCH          = 2025-11-12T07:15:41.895072
MEAN_MOTION    = 14.26124474
ECCENTRICITY   = .00160399
INCLINATION    = 88.9957
RA_OF_ASC_NODE = 65.5348
ARG_OF_PERICENTER = 130.6520
MEAN_ANOMALY   = 229.6071

EPHEMERIS_TYPE = 0
CLASSIFICATION_TYPE = U
NORAD_CAT_ID   = 66036
ELEMENT_SET_NO = 999
REV_AT_EPOCH   = 370
BSTAR          = .58794329E-3
MEAN_MOTION_DOT = .1422E-4
MEAN_MOTION_DDOT = 0

CCSDS_OMM_VERS = 2.0
CREATION_DATE  = 
ORIGINATOR     = 

OBJECT_NAME    = QIANFAN-95
OBJECT_ID      = 2025-233E
CENTER_NAME    = EARTH
REF_FRAME      = TEME
TIME_SYSTEM    = UTC
MEAN_ELEMENT_THEORY = SGP/SGP4

EPOCH          = 2025-11-12T07:14:52.925280
MEAN_MOTION    = 14.26169721
ECCENTRICITY   = .00159983
INCLINATION    = 88.9957
RA_OF_ASC_NODE = 65.5346
ARG_OF_PERICENTER = 131.0755
MEAN_ANOMALY   = 229.1823

EPHEMERIS_TYPE = 0
CLASSIFICATION_TYPE = U
NORAD_CAT_ID   = 66037
ELEMENT_SET_NO = 999
REV_AT_EPOCH   = 370
BSTAR          = .59357259E-3
MEAN_MOTION_DOT = .1436E-4
MEAN_MOTION_DDOT = 0

CCSDS_OMM_VERS = 2.0
CREATION_DATE  = 
ORIGINATOR     = 

OBJECT_NAME    = QIANFAN-96
OBJECT_ID      = 2025-233F
CENTER_NAME    = EARTH
REF_FRAME      = TEME
TIME_SYSTEM    = UTC
MEAN_ELEMENT_THEORY = SGP/SGP4

EPOCH          = 2025-11-11T17:46:12.635328
MEAN_MOTION    = 14.26169600
ECCENTRICITY   = .00166607
INCLINATION    = 88.9957
RA_OF_ASC_NODE = 65.5991
ARG_OF_PERICENTER = 134.4525
MEAN_ANOMALY   = 225.8034

EPHEMERIS_TYPE = 0
CLASSIFICATION_TYPE = U
NORAD_CAT_ID   = 66038
ELEMENT_SET_NO = 999
REV_AT_EPOCH   = 362
BSTAR          = .41242816E-3
MEAN_MOTION_DOT = .1003E-4
MEAN_MOTION_DDOT = 0

CCSDS_OMM_VERS = 2.0
CREATION_DATE  = 
ORIGINATOR     = 

OBJECT_NAME    = QIANFAN-97
OBJECT_ID      = 2025-233G
CENTER_NAME    = EARTH
REF_FRAME      = TEME
TIME_SYSTEM    = UTC
MEAN_ELEMENT_THEORY = SGP/SGP4

EPOCH          = 2025-11-12T07:14:18.068064
MEAN_MOTION    = 14.26179131
ECCENTRICITY   = .00162326
INCLINATION    = 88.9957
RA_OF_ASC_NODE = 65.5345
ARG_OF_PERICENTER = 132.3447
MEAN_ANOMALY   = 227.9125

EPHEMERIS_TYPE = 0
CLASSIFICATION_TYPE = U
NORAD_CAT_ID   = 66039
ELEMENT_SET_NO = 999
REV_AT_EPOCH   = 370
BSTAR          = .58015711E-3
MEAN_MOTION_DOT = .1405E-4
MEAN_MOTION_DDOT = 0

CCSDS_OMM_VERS = 2.0
CREATION_DATE  = 
ORIGINATOR     = 

OBJECT_NAME    = QIANFAN-98
OBJECT_ID      = 2025-233H
CENTER_NAME    = EARTH
REF_FRAME      = TEME
TIME_SYSTEM    = UTC
MEAN_ELEMENT_THEORY = SGP/SGP4

EPOCH          = 2025-11-12T07:13:46.878528
MEAN_MOTION    = 14.26200604
ECCENTRICITY   = .00158511
INCLINATION    = 88.9957
RA_OF_ASC_NODE = 65.5346
ARG_OF_PERICENTER = 131.1779
MEAN_ANOMALY   = 229.0784

EPHEMERIS_TYPE = 0
CLASSIFICATION_TYPE = U
NORAD_CAT_ID   = 66040
ELEMENT_SET_NO = 999
REV_AT_EPOCH   = 370
BSTAR          = .58616036E-3
MEAN_MOTION_DOT = .1419E-4
MEAN_MOTION_DDOT = 0

